{"type": "FeatureCollection", "features": [ {"type": "Feature", "properties": {"norad_id": 34845, "name": "COSMOS 2251 DEB", "group": "cosmos-2251-debris", "lat": -37.134222405459504, "lon": -43.48412287253379, "alt_km": 738.0508788863353, "timestamp": "2025-12-25T19:00:39.746040+00:00", "meta": {"OBJECT_NAME": "COSMOS 2251 DEB", "OBJECT_ID": "1993-036ABP", "EPOCH": "2025-12-24T15:25:52.110336", "MEAN_MOTION": 14.4588243, "ECCENTRICITY": 0.00226897, "INCLINATION": 74.0249, "RA_OF_ASC_NODE": 126.132, "ARG_OF_PERICENTER": 285.329, "MEAN_ANOMALY": 74.5361, "EPHEMERIS_TYPE": 0, "CLASSIFICATION_TYPE": "U", "NORAD_CAT_ID": 34845, "ELEMENT_SET_NO": 999, "REV_AT_EPOCH": 87638, "BSTAR": 0.00029040944, "MEAN_MOTION_DOT": 1.008e-05, "MEAN_MOTION_DDOT": 0}, "tle": {"line1": "1 34845U 93036ABP 25358.64296424  .00001008  00000+0  29041-3 0  9992", "line2": "2 34845  74.0249 126.1320 0022689 285.3290  74.5361 14.45882430876380"}}, "geometry": {"type": "Point", "coordinates": [-43.48412287253379, -37.134222405459504]}}, {"type": "Feature", "properties": {"norad_id": 34846, "name": "COSMOS 2251 DEB", "group": "cosmos-2251-debris", "lat": -40.742815235181446, "lon": 71.64825079228544, "alt_km": 737.2299943212638, "timestamp": "2025-12-25T19:00:39.746050+00:00", "meta": {"OBJECT_NAME": "COSMOS 2251 DEB", "OBJECT_ID": "1993-036ABQ", "EPOCH": "2025-12-24T17:05:55.036320", "MEAN_MOTION": 14.47277381, "ECCENTRICITY": 0.00262307, "INCLINATION": 74.0298, "RA_OF_ASC_NODE": 239.3851, "ARG_OF_PERICENTER": 304.2923, "MEAN_ANOMALY": 55.5752, "EPHEMERIS_TYPE": 0, "CLASSIFICATION_TYPE": "U", "NORAD_CAT_ID": 34846, "ELEMENT_SET_NO": 999, "REV_AT_EPOCH": 87577, "BSTAR": 0.00069731447, "MEAN_MOTION_DOT": 2.535e-05, "MEAN_MOTION_DDOT": 0}, "tle": {"line1": "1 34846U 93036ABQ 25358.71244255  .00002535  00000+0  69731-3 0  9992", "line2": "2 34846  74.0298 239.3851 0026230 304.2923  55.5752 14.47277381875771"}}, "geometry": {"type": "Point", "coordinates": [71.64825079228544, -40.742815235181446]}}, {"type": "Feature", "properties": {"norad_id": 34852, "name": "COSMOS 2251 DEB", "group": "cosmos-2251-debris", "lat": 11.182467623290588, "lon": 55.7239133274136, "alt_km": 781.2228382031453, "timestamp": "2025-12-25T19:00:39.746060+00:00", "meta": {"OBJECT_NAME": "COSMOS 2251 DEB", "OBJECT_ID": "1993-036ABW", "EPOCH": "2025-12-24T08:48:51.292512", "MEAN_MOTION": 14.37013481, "ECCENTRICITY": 0.00167051, "INCLINATION": 74.0323, "RA_OF_ASC_NODE": 241.5883, "ARG_OF_PERICENTER": 342.3569, "MEAN_ANOMALY": 17.7002, "EPHEMERIS_TYPE": 0, "CLASSIFICATION_TYPE": "U", "NORAD_CAT_ID": 34852, "ELEMENT_SET_NO": 999, "REV_AT_EPOCH": 87701, "BSTAR": 0.00010991472, "MEAN_MOTION_DOT": 3e-06, "MEAN_MOTION_DDOT": 0}, "tle": {"line1": "1 34852U 93036ABW 25358.36726033  .00000300  00000+0  10991-3 0  9991", "line2": "2 34852  74.0323 241.5883 0016705 342.3569  17.7002 14.37013481877017"}}, "geometry": {"type": "Point", "coordinates": [55.7239133274136, 11.182467623290588]}}, {"type": "Feature", "properties": {"norad_id": 34854, "name": "COSMOS 2251 DEB", "group": "cosmos-2251-debris", "lat": 43.86550382846583, "lon": -62.98088888399629, "alt_km": 649.7211112580981, "timestamp": "2025-12-25T19:00:39.746070+00:00", "meta": {"OBJECT_NAME": "COSMOS 2251 DEB", "OBJECT_ID": "1993-036ABY", "EPOCH": "2025-12-24T03:22:47.701632", "MEAN_MOTION": 14.76734417, "ECCENTRICITY": 0.00659344, "INCLINATION": 74.0296, "RA_OF_ASC_NODE": 136.2324, "ARG_OF_PERICENTER": 245.6439, "MEAN_ANOMALY": 113.7843, "EPHEMERIS_TYPE": 0, "CLASSIFICATION_TYPE": "U", "NORAD_CAT_ID": 34854, "ELEMENT_SET_NO": 999, "REV_AT_EPOCH": 72050, "BSTAR": 0.00083194152, "MEAN_MOTION_DOT": 6.009e-05, "MEAN_MOTION_DDOT": 0}, "tle": {"line1": "1 34854U 93036ABY 25358.14082988  .00006009  00000+0  83194-3 0  9990", "line2": "2 34854  74.0296 136.2324 0065934 245.6439 113.7843 14.76734417720500"}}, "geometry": {"type": "Point", "coordinates": [-62.98088888399629, 43.86550382846583]}}, {"type": "Feature", "properties": {"norad_id": 34856, "name": "COSMOS 2251 DEB", "group": "cosmos-2251-debris", "lat": 16.765491145248514, "lon": -126.96533026661022, "alt_km": 528.0674194669155, "timestamp": "2025-12-25T19:00:39.746080+00:00", "meta": {"OBJECT_NAME": "COSMOS 2251 DEB", "OBJECT_ID": "1993-036ACA", "EPOCH": "2025-12-24T22:21:30.996000", "MEAN_MOTION": 15.06656764, "ECCENTRICITY": 0.003106, "INCLINATION": 73.996, "RA_OF_ASC_NODE": 59.7657, "ARG_OF_PERICENTER": 195.18, "MEAN_ANOMALY": 341.9359, "EPHEMERIS_TYPE": 0, "CLASSIFICATION_TYPE": "U", "NORAD_CAT_ID": 34856, "ELEMENT_SET_NO": 999, "REV_AT_EPOCH": 89295, "BSTAR": 0.0017148, "MEAN_MOTION_DOT": 0.00025776, "MEAN_MOTION_DDOT": 0}, "tle": {"line1": "1 34856U 93036ACA 25358.93160875  .00025776  00000+0  17148-2 0  9998", "line2": "2 34856  73.9960  59.7657 0031060 195.1800 341.9359 15.06656764892958"}}, "geometry": {"type": "Point", "coordinates": [-126.96533026661022, 16.765491145248514]}}, {"type": "Feature", "properties": {"norad_id": 34857, "name": "COSMOS 2251 DEB", "group": "cosmos-2251-debris", "lat": 68.16032774242737, "lon": -143.73152893632457, "alt_km": 696.2129216508365, "timestamp": "2025-12-25T19:00:39.746090+00:00", "meta": {"OBJECT_NAME": "COSMOS 2251 DEB", "OBJECT_ID": "1993-036ACB", "EPOCH": "2025-12-25T05:30:04.849056", "MEAN_MOTION": 14.59012674, "ECCENTRICITY": 0.00652768, "INCLINATION": 74.0151, "RA_OF_ASC_NODE": 83.0046, "ARG_OF_PERICENTER": 205.1552, "MEAN_ANOMALY": 185.2113, "EPHEMERIS_TYPE": 0, "CLASSIFICATION_TYPE": "U", "NORAD_CAT_ID": 34857, "ELEMENT_SET_NO": 999, "REV_AT_EPOCH": 88083, "BSTAR": 0.0010701163, "MEAN_MOTION_DOT": 5.15e-05, "MEAN_MOTION_DDOT": 0}, "tle": {"line1": "1 34857U 93036ACB 25359.22922279  .00005150  00000+0  10701-2 0  9998", "line2": "2 34857  74.0151  83.0046 0065276 205.1552 185.2113 14.59012674880831"}}, "geometry": {"type": "Point", "coordinates": [-143.73152893632457, 68.16032774242737]}}, {"type": "Feature", "properties": {"norad_id": 34859, "name": "COSMOS 2251 DEB", "group": "cosmos-2251-debris", "lat": -22.76670891885052, "lon": 139.3667294449256, "alt_km": 521.9567636671518, "timestamp": "2025-12-25T19:00:39.746100+00:00", "meta": {"OBJECT_NAME": "COSMOS 2251 DEB", "OBJECT_ID": "1993-036ACD", "EPOCH": "2025-12-24T23:24:16.834176", "MEAN_MOTION": 15.16561458, "ECCENTRICITY": 0.00013854, "INCLINATION": 74.0308, "RA_OF_ASC_NODE": 314.1675, "ARG_OF_PERICENTER": 31.1721, "MEAN_ANOMALY": 34.0562, "EPHEMERIS_TYPE": 0, "CLASSIFICATION_TYPE": "U", "NORAD_CAT_ID": 34859, "ELEMENT_SET_NO": 999, "REV_AT_EPOCH": 88544, "BSTAR": 0.0038950433, "MEAN_MOTION_DOT": 0.00076819, "MEAN_MOTION_DDOT": 0}, "tle": {"line1": "1 34859U 93036ACD 25358.97519484  .00076819  00000+0  38950-2 0  9997", "line2": "2 34859  74.0308 314.1675 0001385  31.1721  34.0562 15.16561458885443"}}, "geometry": {"type": "Point", "coordinates": [139.3667294449256, -22.76670891885052]}}, {"type": "Feature", "properties": {"norad_id": 34861, "name": "COSMOS 2251 DEB", "group": "cosmos-2251-debris", "lat": -48.02400168616979, "lon": -137.24955569651664, "alt_km": 567.5319099904746, "timestamp": "2025-12-25T19:00:39.746111+00:00", "meta": {"OBJECT_NAME": "COSMOS 2251 DEB", "OBJECT_ID": "1993-036ACF", "EPOCH": "2025-12-24T08:30:51.111936", "MEAN_MOTION": 15.03272413, "ECCENTRICITY": 0.00083388, "INCLINATION": 74.0171, "RA_OF_ASC_NODE": 27.1111, "ARG_OF_PERICENTER": 15.9962, "MEAN_ANOMALY": 358.949, "EPHEMERIS_TYPE": 0, "CLASSIFICATION_TYPE": "U", "NORAD_CAT_ID": 34861, "ELEMENT_SET_NO": 999, "REV_AT_EPOCH": 88267, "BSTAR": 0.002836129, "MEAN_MOTION_DOT": 0.00038649, "MEAN_MOTION_DDOT": 0}, "tle": {"line1": "1 34861U 93036ACF 25358.35475824  .00038649  00000+0  28361-2 0  9995", "line2": "2 34861  74.0171  27.1111 0008338  15.9962 358.9490 15.03272413882678"}}, "geometry": {"type": "Point", "coordinates": [-137.24955569651664, -48.02400168616979]}}, {"type": "Feature", "properties": {"norad_id": 34874, "name": "COSMOS 2251 DEB", "group": "cosmos-2251-debris", "lat": -61.029381830830665, "lon": 18.667282853949523, "alt_km": 803.3592513980648, "timestamp": "2025-12-25T19:00:39.746120+00:00", "meta": {"OBJECT_NAME": "COSMOS 2251 DEB", "OBJECT_ID": "1993-036ACM", "EPOCH": "2025-12-24T22:24:14.356800", "MEAN_MOTION": 14.36365151, "ECCENTRICITY": 0.0050509, "INCLINATION": 74.0391, "RA_OF_ASC_NODE": 51.3701, "ARG_OF_PERICENTER": 72.6657, "MEAN_ANOMALY": 104.1751, "EPHEMERIS_TYPE": 0, "CLASSIFICATION_TYPE": "U", "NORAD_CAT_ID": 34874, "ELEMENT_SET_NO": 999, "REV_AT_EPOCH": 87219, "BSTAR": 0.00083514, "MEAN_MOTION_DOT": 2.455e-05, "MEAN_MOTION_DDOT": 0}, "tle": {"line1": "1 34874U 93036ACM 25358.93349950  .00002455  00000+0  83514-3 0  9991", "line2": "2 34874  74.0391  51.3701 0050509  72.6657 104.1751 14.36365151872192"}}, "geometry": {"type": "Point", "coordinates": [18.667282853949523, -61.029381830830665]}}, {"type": "Feature", "properties": {"norad_id": 34875, "name": "COSMOS 2251 DEB", "group": "cosmos-2251-debris", "lat": -37.710610478475445, "lon": -33.45921005050494, "alt_km": 725.8162442868252, "timestamp": "2025-12-25T19:00:39.746131+00:00", "meta": {"OBJECT_NAME": "COSMOS 2251 DEB", "OBJECT_ID": "1993-036ACN", "EPOCH": "2025-12-24T15:33:22.942944", "MEAN_MOTION": 14.48965081, "ECCENTRICITY": 0.00162603, "INCLINATION": 74.0438, "RA_OF_ASC_NODE": 135.9032, "ARG_OF_PERICENTER": 258.7537, "MEAN_ANOMALY": 116.0666, "EPHEMERIS_TYPE": 0, "CLASSIFICATION_TYPE": "U", "NORAD_CAT_ID": 34875, "ELEMENT_SET_NO": 999, "REV_AT_EPOCH": 87928, "BSTAR": 0.00046663388, "MEAN_MOTION_DOT": 1.744e-05, "MEAN_MOTION_DDOT": 0}, "tle": {"line1": "1 34875U 93036ACN 25358.64818221  .00001744  00000+0  46663-3 0  9996", "line2": "2 34875  74.0438 135.9032 0016260 258.7537 116.0666 14.48965081879286"}}, "geometry": {"type": "Point", "coordinates": [-33.45921005050494, -37.710610478475445]}}]}